{
  "type": "FeatureCollection",
  "features": [
    {
      "type": "Feature",
      "properties": {
        "norad_id": 37998,
        "name": "COSMOS 2251 DEB",
        "group": "cosmos-2251-debris",
        "lat": 64.10534515558282,
        "lon": -70.99261650966095,
        "alt_km": 736.703133647653,
        "timestamp": "2025-12-03T04:52:30.036784+00:00",
        "meta_object_name": "COSMOS 2251 DEB",
        "meta_object_id": "1993-036BQZ",
        "meta_epoch": "2025-11-29T12:31:01.771392",
        "meta_mean_motion": 14.45395467,
        "meta_eccentricity": 0.00197878,
        "meta_inclination": 74.0369,
        "meta_ra_of_asc_node": 259.7366,
        "meta_arg_of_pericenter": 336.2714,
        "meta_mean_anomaly": 23.753,
        "meta_ephemeris_type": 0,
        "meta_classification_type": "U",
        "meta_norad_cat_id": 37998,
        "meta_element_set_no": 999,
        "meta_rev_at_epoch": 64096,
        "meta_bstar": 0.00059073677,
        "meta_mean_motion_dot": 2.057e-05,
        "meta_mean_motion_ddot": 0,
        "tle_line1": "1 37998U 93036BQZ 25333.52154828  .00002057  00000+0  59074-3 0  9999",
        "tle_line2": "2 37998  74.0369 259.7366 0019787 336.2714  23.7530 14.45395467640966"
      },
      "geometry": {
        "type": "Point",
        "coordinates": [
          -70.99261650966095,
          64.10534515558282
        ]
      }
    },
    {
      "type": "Feature",
      "properties": {
        "norad_id": 38001,
        "name": "COSMOS 2251 DEB",
        "group": "cosmos-2251-debris",
        "lat": -41.56637846532772,
        "lon": 136.38122540543253,
        "alt_km": 594.7318718265724,
        "timestamp": "2025-12-03T04:52:30.036794+00:00",
        "meta_object_name": "COSMOS 2251 DEB",
        "meta_object_id": "1993-036BRC",
        "meta_epoch": "2025-12-01T22:54:46.080864",
        "meta_mean_motion": 14.78884887,
        "meta_eccentricity": 0.0065155,
        "meta_inclination": 73.9989,
        "meta_ra_of_asc_node": 153.583,
        "meta_arg_of_pericenter": 305.0711,
        "meta_mean_anomaly": 207.3288,
        "meta_ephemeris_type": 0,
        "meta_classification_type": "U",
        "meta_norad_cat_id": 38001,
        "meta_element_set_no": 999,
        "meta_rev_at_epoch": 74548,
        "meta_bstar": 0.00075739736,
        "meta_mean_motion_dot": 5.752e-05,
        "meta_mean_motion_ddot": 0,
        "tle_line1": "1 38001U 93036BRC 25335.95470001  .00005752  00000+0  75740-3 0  9991",
        "tle_line2": "2 38001  73.9989 153.5830 0065155 305.0711 207.3288 14.78884887745484"
      },
      "geometry": {
        "type": "Point",
        "coordinates": [
          136.38122540543253,
          -41.56637846532772
        ]
      }
    },
    {
      "type": "Feature",
      "properties": {
        "norad_id": 38006,
        "name": "COSMOS 2251 DEB",
        "group": "cosmos-2251-debris",
        "lat": -34.347434474392585,
        "lon": -112.55483805688868,
        "alt_km": 792.2727510641544,
        "timestamp": "2025-12-03T04:52:30.036805+00:00",
        "meta_object_name": "COSMOS 2251 DEB",
        "meta_object_id": "1993-036BRH",
        "meta_epoch": "2025-12-01T12:00:57.044736",
        "meta_mean_motion": 14.45530874,
        "meta_eccentricity": 0.00745141,
        "meta_inclination": 73.8466,
        "meta_ra_of_asc_node": 59.2312,
        "meta_arg_of_pericenter": 10.3044,
        "meta_mean_anomaly": 349.9618,
        "meta_ephemeris_type": 0,
        "meta_classification_type": "U",
        "meta_norad_cat_id": 38006,
        "meta_element_set_no": 999,
        "meta_rev_at_epoch": 62797,
        "meta_bstar": 0.0024598906,
        "meta_mean_motion_dot": 8.963e-05,
        "meta_mean_motion_ddot": 0,
        "tle_line1": "1 38006U 93036BRH 25335.50066024  .00008963  00000+0  24599-2 0  9995",
        "tle_line2": "2 38006  73.8466  59.2312 0074514  10.3044 349.9618 14.45530874627970"
      },
      "geometry": {
        "type": "Point",
        "coordinates": [
          -112.55483805688868,
          -34.347434474392585
        ]
      }
    },
    {
      "type": "Feature",
      "properties": {
        "norad_id": 38054,
        "name": "COSMOS 2251 DEB",
        "group": "cosmos-2251-debris",
        "lat": -37.87932127123985,
        "lon": -91.53586382095197,
        "alt_km": 889.0242089077028,
        "timestamp": "2025-12-03T04:52:30.036816+00:00",
        "meta_object_name": "COSMOS 2251 DEB",
        "meta_object_id": "1993-036BRL",
        "meta_epoch": "2025-11-26T08:10:24.945600",
        "meta_mean_motion": 13.62179263,
        "meta_eccentricity": 0.03616303,
        "meta_inclination": 73.9545,
        "meta_ra_of_asc_node": 292.6204,
        "meta_arg_of_pericenter": 273.8545,
        "meta_mean_anomaly": 241.8921,
        "meta_ephemeris_type": 0,
        "meta_classification_type": "U",
        "meta_norad_cat_id": 38054,
        "meta_element_set_no": 999,
        "meta_rev_at_epoch": 66956,
        "meta_bstar": 0.0037967706,
        "meta_mean_motion_dot": 4.525e-05,
        "meta_mean_motion_ddot": 0,
        "tle_line1": "1 38054U 93036BRL 25330.34056650  .00004525  00000+0  37968-2 0  9993",
        "tle_line2": "2 38054  73.9545 292.6204 0361630 273.8545 241.8921 13.62179263669562"
      },
      "geometry": {
        "type": "Point",
        "coordinates": [
          -91.53586382095197,
          -37.87932127123985
        ]
      }
    },
    {
      "type": "Feature",
      "properties": {
        "norad_id": 38055,
        "name": "COSMOS 2251 DEB",
        "group": "cosmos-2251-debris",
        "lat": -72.2674169167141,
        "lon": 161.74426357121646,
        "alt_km": 636.009454846776,
        "timestamp": "2025-12-03T04:52:30.036827+00:00",
        "meta_object_name": "COSMOS 2251 DEB",
        "meta_object_id": "1993-036BRM",
        "meta_epoch": "2025-11-30T11:23:37.489344",
        "meta_mean_motion": 14.76741647,
        "meta_eccentricity": 0.00655995,
        "meta_inclination": 74.0094,
        "meta_ra_of_asc_node": 230.8354,
        "meta_arg_of_pericenter": 1.0653,
        "meta_mean_anomaly": 178.44,
        "meta_ephemeris_type": 0,
        "meta_classification_type": "U",
        "meta_norad_cat_id": 38055,
        "meta_element_set_no": 999,
        "meta_rev_at_epoch": 60501,
        "meta_bstar": 0.0010104465,
        "meta_mean_motion_dot": 7.307e-05,
        "meta_mean_motion_ddot": 0,
        "tle_line1": "1 38055U 93036BRM 25334.47473946  .00007307  00000+0  10104-2 0  9997",
        "tle_line2": "2 38055  74.0094 230.8354 0065599   1.0653 178.4400 14.76741647605014"
      },
      "geometry": {
        "type": "Point",
        "coordinates": [
          161.74426357121646,
          -72.2674169167141
        ]
      }
    },
    {
      "type": "Feature",
      "properties": {
        "norad_id": 38060,
        "name": "COSMOS 2251 DEB",
        "group": "cosmos-2251-debris",
        "lat": -49.526155176458076,
        "lon": 153.20500316115357,
        "alt_km": 727.6470336182638,
        "timestamp": "2025-12-03T04:52:30.036837+00:00",
        "meta_object_name": "COSMOS 2251 DEB",
        "meta_object_id": "1993-036BRS",
        "meta_epoch": "2025-11-30T16:46:11.567136",
        "meta_mean_motion": 14.63742552,
        "meta_eccentricity": 0.0057629,
        "meta_inclination": 74.0424,
        "meta_ra_of_asc_node": 318.4162,
        "meta_arg_of_pericenter": 67.815,
        "meta_mean_anomaly": 292.9119,
        "meta_ephemeris_type": 0,
        "meta_classification_type": "U",
        "meta_norad_cat_id": 38060,
        "meta_element_set_no": 999,
        "meta_rev_at_epoch": 71788,
        "meta_bstar": 0.00051174098,
        "meta_mean_motion_dot": 2.701e-05,
        "meta_mean_motion_ddot": 0,
        "tle_line1": "1 38060U 93036BRS 25334.69874499  .00002701  00000+0  51174-3 0  9991",
        "tle_line2": "2 38060  74.0424 318.4162 0057629  67.8150 292.9119 14.63742552717884"
      },
      "geometry": {
        "type": "Point",
        "coordinates": [
          153.20500316115357,
          -49.526155176458076
        ]
      }
    },
    {
      "type": "Feature",
      "properties": {
        "norad_id": 38062,
        "name": "COSMOS 2251 DEB",
        "group": "cosmos-2251-debris",
        "lat": -47.13803379935309,
        "lon": 147.71829466377383,
        "alt_km": 599.1200892651304,
        "timestamp": "2025-12-03T04:52:30.036847+00:00",
        "meta_object_name": "COSMOS 2251 DEB",
        "meta_object_id": "1993-036BRU",
        "meta_epoch": "2025-12-02T15:30:52.155072",
        "meta_mean_motion": 14.9400707,
        "meta_eccentricity": 0.0011947,
        "meta_inclination": 74.0086,
        "meta_ra_of_asc_node": 310.8403,
        "meta_arg_of_pericenter": 79.5377,
        "meta_mean_anomaly": 37.1284,
        "meta_ephemeris_type": 0,
        "meta_classification_type": "U",
        "meta_norad_cat_id": 38062,
        "meta_element_set_no": 999,
        "meta_rev_at_epoch": 62879,
        "meta_bstar": 0.0028464492,
        "meta_mean_motion_dot": 0.00030496,
        "meta_mean_motion_ddot": 0,
        "tle_line1": "1 38062U 93036BRU 25336.64643698  .00030496  00000+0  28464-2 0  9992",
        "tle_line2": "2 38062  74.0086 310.8403 0011947  79.5377  37.1284 14.94007070628794"
      },
      "geometry": {
        "type": "Point",
        "coordinates": [
          147.71829466377383,
          -47.13803379935309
        ]
      }
    }
  ]
}